{
  "type": "FeatureCollection",
  "properties": {
    "note": "DEMO / SYNTHETIC data for software testing only - NOT authoritative MPA boundaries",
    "source_name": "GhostNet Demo Dataset",
    "source_url": "",
    "retrieved_at": "2026-09-08",
    "license": "Demo / synthetic - not for operational use",
    "dataset_version": "demo-1.0"
  },
  "features": [
    {
      "type": "Feature",
      "properties": {"name": "DEMO Gulf of Mannar Marine National Park (approx.)", "feature_type": "protected_area"},
      "geometry": {"type": "Polygon", "coordinates": [[[78.9,9.0],[79.3,9.0],[79.3,9.3],[78.9,9.3],[78.9,9.0]]]}
    },
    {
      "type": "Feature",
      "properties": {"name": "DEMO Malvan Marine Sanctuary (approx.)", "feature_type": "protected_area"},
      "geometry": {"type": "Polygon", "coordinates": [[[73.40,16.00],[73.55,16.00],[73.55,16.12],[73.40,16.12],[73.40,16.00]]]}
    },
    {
      "type": "Feature",
      "properties": {"name": "DEMO Sundarbans Marine Buffer (approx.)", "feature_type": "protected_area"},
      "geometry": {"type": "Polygon", "coordinates": [[[88.7,21.4],[89.1,21.4],[89.1,21.8],[88.7,21.8],[88.7,21.4]]]}
    },
    {
      "type": "Feature",
      "properties": {"name": "DEMO Lakshadweep Reef Reserve (approx.)", "feature_type": "protected_area"},
      "geometry": {"type": "Polygon", "coordinates": [[[72.4,10.4],[72.8,10.4],[72.8,10.8],[72.4,10.8],[72.4,10.4]]]}
    },
    {
      "type": "Feature",
      "properties": {"name": "DEMO Gulf of Kutch Marine National Park (approx.)", "feature_type": "protected_area"},
      "geometry": {"type": "Polygon", "coordinates": [[[69.0,22.3],[69.4,22.3],[69.4,22.6],[69.0,22.6],[69.0,22.3]]]}
    }
  ]
}
