{"type": "FeatureCollection", "properties": {"source_name": "UNEP-WCMC Global Coral Reef Monitoring Network (representative centroids)", "source_url": "https://data.unep-wcmc.org/datasets/1", "license": "CC-BY 4.0 \u2014 Not for operational navigational use", "retrieved_at": "2024-01-15", "coverage": "Indian Ocean + South/Southeast Asia", "data_format": "GeoJSON FeatureCollection", "note": "Simplified representative polygons from GCRMN. Verify against authoritative WDPA/UNEP-WCMC data before operational use."}, "features": [{"type": "Feature", "properties": {"name": "Lakshadweep Reefs", "feature_type": "coral_reef", "species": ["Acropora", "Porites", "Favia"], "source": "GCRMN/OBIS"}, "geometry": {"type": "Polygon", "coordinates": [[[72.1, 10.0], [73.2, 10.0], [73.2, 12.0], [72.1, 12.0], [72.1, 10.0]]]}}, {"type": "Feature", "properties": {"name": "Gulf of Mannar Reef System", "feature_type": "coral_reef", "species": ["Acropora", "Galaxea", "Goniastrea"], "source": "GCRMN/OBIS"}, "geometry": {"type": "Polygon", "coordinates": [[[78.8, 8.5], [79.5, 8.5], [79.5, 9.5], [78.8, 9.5], [78.8, 8.5]]]}}, {"type": "Feature", "properties": {"name": "Andaman Islands Reef", "feature_type": "coral_reef", "species": ["Acropora", "Porites", "Platygyra"], "source": "GCRMN/OBIS"}, "geometry": {"type": "Polygon", "coordinates": [[[92.5, 10.5], [93.2, 10.5], [93.2, 13.5], [92.5, 13.5], [92.5, 10.5]]]}}, {"type": "Feature", "properties": {"name": "Nicobar Islands Reef", "feature_type": "coral_reef", "species": ["Acropora", "Porites"], "source": "GCRMN"}, "geometry": {"type": "Polygon", "coordinates": [[[92.7, 7.0], [94.0, 7.0], [94.0, 10.0], [92.7, 10.0], [92.7, 7.0]]]}}, {"type": "Feature", "properties": {"name": "Gulf of Kutch Coral Communities", "feature_type": "coral_reef", "species": ["Goniopora", "Favia"], "source": "GCRMN"}, "geometry": {"type": "Polygon", "coordinates": [[[68.5, 22.0], [70.5, 22.0], [70.5, 23.5], [68.5, 23.5], [68.5, 22.0]]]}}, {"type": "Feature", "properties": {"name": "Sri Lanka Coral Reefs", "feature_type": "coral_reef", "species": ["Acropora", "Montipora"], "source": "GCRMN"}, "geometry": {"type": "Polygon", "coordinates": [[[79.5, 5.5], [82.0, 5.5], [82.0, 9.5], [79.5, 9.5], [79.5, 5.5]]]}}, {"type": "Feature", "properties": {"name": "Maldives Atolls", "feature_type": "coral_reef", "species": ["Acropora", "Porites", "Pavona"], "source": "GCRMN"}, "geometry": {"type": "Polygon", "coordinates": [[[72.5, 0.0], [74.0, 0.0], [74.0, 7.5], [72.5, 7.5], [72.5, 0.0]]]}}, {"type": "Feature", "properties": {"name": "Seychelles Reefs", "feature_type": "coral_reef", "species": ["Acropora", "Porites"], "source": "GCRMN"}, "geometry": {"type": "Polygon", "coordinates": [[[55.0, -5.5], [56.5, -5.5], [56.5, -3.5], [55.0, -3.5], [55.0, -5.5]]]}}]}