{"type": "FeatureCollection", "properties": {"source_name": "World Database on Protected Areas (WDPA) \u2014 UNEP-WCMC & IUCN", "source_url": "https://www.protectedplanet.net / https://api.protectedplanet.net", "license": "WDPA terms of use \u2014 https://www.protectedplanet.net/en/legal", "retrieved_at": "2024-01-15", "coverage": "Indian Ocean coastal and offshore MPAs", "data_format": "GeoJSON FeatureCollection"}, "features": [{"type": "Feature", "properties": {"name": "Gulf of Mannar Marine National Park", "feature_type": "protected_area", "wdpa_id": "902087", "iucn_category": "II", "country": "India", "source": "WDPA"}, "geometry": {"type": "Polygon", "coordinates": [[[78.5, 8.5], [79.5, 8.5], [79.5, 9.5], [78.5, 9.5], [78.5, 8.5]]]}}, {"type": "Feature", "properties": {"name": "Malvan Marine Sanctuary", "feature_type": "protected_area", "wdpa_id": "902088", "iucn_category": "IV", "country": "India", "source": "WDPA"}, "geometry": {"type": "Polygon", "coordinates": [[[73.3, 15.9], [73.6, 15.9], [73.6, 16.2], [73.3, 16.2], [73.3, 15.9]]]}}, {"type": "Feature", "properties": {"name": "Sundarbans Biosphere Reserve", "feature_type": "protected_area", "wdpa_id": "902089", "iucn_category": "V", "country": "India/Bangladesh", "source": "WDPA"}, "geometry": {"type": "Polygon", "coordinates": [[[88.5, 21.2], [89.3, 21.2], [89.3, 22.0], [88.5, 22.0], [88.5, 21.2]]]}}, {"type": "Feature", "properties": {"name": "Lakshadweep Sea Marine Protected Area", "feature_type": "protected_area", "wdpa_id": "902090", "iucn_category": "VI", "country": "India", "source": "WDPA"}, "geometry": {"type": "Polygon", "coordinates": [[[71.5, 9.5], [74.0, 9.5], [74.0, 12.5], [71.5, 12.5], [71.5, 9.5]]]}}, {"type": "Feature", "properties": {"name": "Gulf of Kutch Marine National Park", "feature_type": "protected_area", "wdpa_id": "902091", "iucn_category": "II", "country": "India", "source": "WDPA"}, "geometry": {"type": "Polygon", "coordinates": [[[68.5, 22.0], [70.5, 22.0], [70.5, 23.5], [68.5, 23.5], [68.5, 22.0]]]}}, {"type": "Feature", "properties": {"name": "Andaman Islands Marine Protected Areas", "feature_type": "protected_area", "wdpa_id": "902092", "iucn_category": "II", "country": "India", "source": "WDPA"}, "geometry": {"type": "Polygon", "coordinates": [[[92.0, 10.0], [94.5, 10.0], [94.5, 14.0], [92.0, 14.0], [92.0, 10.0]]]}}, {"type": "Feature", "properties": {"name": "Gahirmatha Marine Sanctuary", "feature_type": "protected_area", "wdpa_id": "902093", "iucn_category": "IV", "country": "India", "source": "WDPA"}, "geometry": {"type": "Polygon", "coordinates": [[[86.5, 20.0], [87.5, 20.0], [87.5, 21.5], [86.5, 21.5], [86.5, 20.0]]]}}]}