{"type": "FeatureCollection", "properties": {"source_name": "OBIS Ocean Biodiversity Information System / IUCN Red List range maps", "source_url": "https://api.obis.org / https://www.iucnredlist.org", "license": "CC-BY 4.0 (OBIS) / IUCN usage terms", "retrieved_at": "2024-01-15", "coverage": "Indian Ocean + Bay of Bengal + Arabian Sea", "data_format": "GeoJSON FeatureCollection"}, "features": [{"type": "Feature", "properties": {"name": "Gahirmatha Olive Ridley Mass Nesting Beach", "feature_type": "species_sanctuary", "habitat_kind": "turtle_nesting", "species": ["Lepidochelys olivacea"], "protection_level": "Ramsar Wetland", "source": "OBIS/IUCN", "source_url": "https://api.obis.org/v3/taxon/220060/map"}, "geometry": {"type": "Polygon", "coordinates": [[[86.5, 20.5], [87.2, 20.5], [87.2, 21.2], [86.5, 21.2], [86.5, 20.5]]]}}, {"type": "Feature", "properties": {"name": "Rushikulya Turtle Nesting Beach", "feature_type": "species_sanctuary", "habitat_kind": "turtle_nesting", "species": ["Lepidochelys olivacea"], "source": "OBIS"}, "geometry": {"type": "Polygon", "coordinates": [[[84.9, 19.4], [85.1, 19.4], [85.1, 19.6], [84.9, 19.6], [84.9, 19.4]]]}}, {"type": "Feature", "properties": {"name": "Gulf of Mannar Green Turtle Habitat", "feature_type": "species_sanctuary", "habitat_kind": "turtle_habitat", "species": ["Chelonia mydas", "Eretmochelys imbricata"], "source": "OBIS"}, "geometry": {"type": "Polygon", "coordinates": [[[78.5, 8.5], [79.8, 8.5], [79.8, 10.0], [78.5, 10.0], [78.5, 8.5]]]}}, {"type": "Feature", "properties": {"name": "Andaman Leatherback Nesting Zone", "feature_type": "species_sanctuary", "habitat_kind": "turtle_nesting", "species": ["Dermochelys coriacea"], "source": "OBIS/IUCN"}, "geometry": {"type": "Polygon", "coordinates": [[[92.5, 11.5], [93.2, 11.5], [93.2, 13.5], [92.5, 13.5], [92.5, 11.5]]]}}, {"type": "Feature", "properties": {"name": "Blue Whale Migration Corridor (Sri Lanka)", "feature_type": "species_sanctuary", "habitat_kind": "whale_corridor", "species": ["Balaenoptera musculus"], "source": "OBIS/IWC"}, "geometry": {"type": "Polygon", "coordinates": [[[79.0, 2.0], [84.0, 2.0], [84.0, 8.0], [79.0, 8.0], [79.0, 2.0]]]}}, {"type": "Feature", "properties": {"name": "Arabian Sea Sperm Whale Habitat", "feature_type": "species_sanctuary", "habitat_kind": "whale_corridor", "species": ["Physeter macrocephalus"], "source": "IWC/OBIS"}, "geometry": {"type": "Polygon", "coordinates": [[[60.0, 10.0], [68.0, 10.0], [68.0, 22.0], [60.0, 22.0], [60.0, 10.0]]]}}, {"type": "Feature", "properties": {"name": "Irrawaddy Dolphin Habitat (Chilika Lake and Bay of Bengal)", "feature_type": "species_sanctuary", "habitat_kind": "dolphin_habitat", "species": ["Orcaella brevirostris"], "source": "IUCN Red List"}, "geometry": {"type": "Polygon", "coordinates": [[[85.0, 19.0], [86.5, 19.0], [86.5, 20.5], [85.0, 20.5], [85.0, 19.0]]]}}, {"type": "Feature", "properties": {"name": "Lakshadweep Spinner Dolphin Habitat", "feature_type": "species_sanctuary", "habitat_kind": "dolphin_habitat", "species": ["Stenella longirostris"], "source": "OBIS"}, "geometry": {"type": "Polygon", "coordinates": [[[71.5, 10.0], [73.5, 10.0], [73.5, 12.5], [71.5, 12.5], [71.5, 10.0]]]}}, {"type": "Feature", "properties": {"name": "Gulf of Mannar Dugong Habitat", "feature_type": "species_sanctuary", "habitat_kind": "dugong_habitat", "species": ["Dugong dugon"], "protection_level": "Critically Endangered (India)", "source": "IUCN/OBIS"}, "geometry": {"type": "Polygon", "coordinates": [[[78.7, 8.5], [79.5, 8.5], [79.5, 9.5], [78.7, 9.5], [78.7, 8.5]]]}}, {"type": "Feature", "properties": {"name": "Gujarat Whale Shark Congregation Area", "feature_type": "species_sanctuary", "habitat_kind": "shark_habitat", "species": ["Rhincodon typus"], "source": "OBIS/Wildlife Trust of India"}, "geometry": {"type": "Polygon", "coordinates": [[[69.0, 20.0], [72.0, 20.0], [72.0, 23.0], [69.0, 23.0], [69.0, 20.0]]]}}]}